NORAD_CAT_ID,OBJECT_NAME,OBJECT_TYPE,EPOCH,MEAN_MOTION,ECCENTRICITY,INCLINATION,RA_OF_ASC_NODE,ARG_OF_PERICENTER,MEAN_ANOMALY,BSTAR,MEAN_MOTION_DOT,MEAN_MOTION_DDOT,TLE_LINE0,TLE_LINE1,TLE_LINE2,SEMIMAJOR_AXIS,PERIOD,APOGEE,PERIGEE,DECAYED
52685.0,STARLINK-4029,PAYLOAD,2023-06-18 14:30:16,15.08857624,8.53e-05,53.2158,291.2303,104.3164,255.7923,0.0013409,0.00021127,0.0,0 STARLINK-4029,1 52685U 22053AF  23169.60435341  .00021127  00000-0  13409-2 0  9997,2 52685  53.2158 291.2303 0000853 104.3164 255.7923 15.08857624 60899,6917.827,95.436,540.282,539.101,0.0
52685.0,STARLINK-4029,PAYLOAD,2023-06-19 07:59:30,15.08846755,8.37e-05,53.2152,287.9593,102.3592,257.7493,0.00024574,3.626e-05,0.0,0 STARLINK-4029,1 52685U 22053AF  23170.33299217  .00003626  00000-0  24574-3 0  9999,2 52685  53.2152 287.9593 0000837 102.3592 257.7493 15.08846755 60630,6917.86,95.437,540.304,539.146,0.0
52685.0,STARLINK-4029,PAYLOAD,2023-06-19 14:21:03,15.08849687,8.54e-05,53.2158,286.7705,94.7662,265.3428,0.00036197,5.479e-05,0.0,0 STARLINK-4029,1 52685U 22053AF  23170.59795229  .00005479  00000-0  36197-3 0  9993,2 52685  53.2158 286.7705 0000854  94.7662 265.3428 15.08849687 61045,6917.851,95.437,540.307,539.125,0.0
52685.0,STARLINK-4029,PAYLOAD,2023-06-19 19:07:12,15.0885329,0.0001118,53.2162,285.8775,91.1735,268.9386,0.00053011,8.162e-05,0.0,0 STARLINK-4029,1 52685U 22053AF  23170.79667059  .00008162  00000-0  53011-3 0  9990,2 52685  53.2162 285.8775 0001118  91.1735 268.9386 15.08853290 61073,6917.84,95.437,540.478,538.931,0.0
52685.0,STARLINK-4029,PAYLOAD,2023-06-20 07:50:17,15.08841296,0.0001256,53.2135,283.5002,75.6994,284.4137,0.00026668,3.959e-05,0.0,0 STARLINK-4029,1 52685U 22053AF  23171.32659399  .00003959  00000-0  26668-3 0  9995,2 52685  53.2135 283.5002 0001256  75.6994 284.4137 15.08841296 60785,6917.876,95.437,540.61,538.873,0.0
52685.0,STARLINK-4029,PAYLOAD,2023-06-20 17:22:36,15.08843684,8.66e-05,53.2138,281.7162,90.8969,269.2122,0.00016452,2.332e-05,0.0,0 STARLINK-4029,1 52685U 22053AF  23171.72403252  .00002332  00000-0  16452-3 0  9998,2 52685  53.2138 281.7162 0000866  90.8969 269.2122 15.08843684 61219,6917.869,95.437,540.333,539.135,0.0
52685.0,STARLINK-4029,PAYLOAD,2023-06-21 12:27:14,15.08844807,9.19e-05,53.2154,278.147,87.5009,272.6089,0.00023261,3.417e-05,0.0,0 STARLINK-4029,1 52685U 22053AF  23172.51891317  .00003417  00000-0  23261-3 0  9990,2 52685  53.2154 278.1470 0000919  87.5009 272.6089 15.08844807 60965,6917.866,95.437,540.366,539.095,0.0
52685.0,STARLINK-4029,PAYLOAD,2023-06-21 14:02:37,15.08848791,8.36e-05,53.2154,277.8503,83.123,276.9857,0.00031557,4.739e-05,0.0,0 STARLINK-4029,1 52685U 22053AF  23172.58515176  .00004739  00000-0  31557-3 0  9998,2 52685  53.2154 277.8503 0000836  83.1230 276.9857 15.08848791 61343,6917.854,95.437,540.297,539.14,0.0
52685.0,STARLINK-4029,PAYLOAD,2023-06-22 07:31:51,15.08841741,8.59e-05,53.2143,274.5791,83.9191,276.1899,0.00015802,2.228e-05,0.0,0 STARLINK-4029,1 52685U 22053AF  23173.31379463  .00002228  00000-0  15802-3 0  9993,2 52685  53.2143 274.5791 0000859  83.9191 276.1899 15.08841741 61080,6917.875,95.437,540.334,539.146,0.0
52685.0,STARLINK-4029,PAYLOAD,2023-06-23 12:08:48,15.08839982,9.2e-05,53.2155,269.2273,91.962,268.1478,7.5438e-05,9.13e-06,0.0,0 STARLINK-4029,1 52685U 22053AF  23174.50611555  .00000913  00000-0  75438-4 0  9997,2 52685  53.2155 269.2273 0000920  91.9620 268.1478 15.08839982 61262,6917.88,95.438,540.382,539.109,0.0
52685.0,STARLINK-4029,PAYLOAD,2023-06-23 16:54:57,15.08847758,8.03e-05,53.2154,268.3338,70.7589,289.349,0.00028914,4.318e-05,0.0,0 STARLINK-4029,1 52685U 22053AF  23174.70483220  .00004318  00000-0  28914-3 0  9994,2 52685  53.2154 268.3338 0000803  70.7589 289.3490 15.08847758 61294,6917.857,95.437,540.277,539.166,0.0
52685.0,STARLINK-4029,PAYLOAD,2023-06-24 05:38:02,15.08835026,5.94e-05,53.2135,265.9499,124.2949,235.8099,-1.9948e-05,-6.05e-06,0.0,0 STARLINK-4029,1 52685U 22053AF  23175.23475670 -.00000605  00000-0 -19948-4 0  9998,2 52685  53.2135 265.9499 0000594 124.2949 235.8099 15.08835026 61371,6917.896,95.438,540.172,539.35,0.0
52685.0,STARLINK-4029,PAYLOAD,2023-06-24 15:10:21,15.08844697,7.55e-05,53.2138,264.1711,91.5106,268.5973,0.00043197,6.595e-05,0.0,0 STARLINK-4029,1 52685U 22053AF  23175.63219587  .00006595  00000-0  43197-3 0  9999,2 52685  53.2138 264.1711 0000755  91.5106 268.5973 15.08844697 61437,6917.866,95.437,540.253,539.209,0.0
52685.0,STARLINK-4029,PAYLOAD,2023-06-25 05:28:50,15.08843156,0.0001024,53.2145,261.4949,77.5386,282.5721,0.00033827,5.1e-05,0.0,0 STARLINK-4029,1 52685U 22053AF  23176.22835909  .00005100  00000-0  33827-3 0  9997,2 52685  53.2145 261.4949 0001024  77.5386 282.5721 15.08843156 61528,6917.871,95.437,540.444,539.027,0.0
52685.0,STARLINK-4029,PAYLOAD,2023-06-25 22:58:04,15.08840725,9.94e-05,53.2138,258.2238,84.2804,275.8301,0.0001942,2.804e-05,0.0,0 STARLINK-4029,1 52685U 22053AF  23176.95699819  .00002804  00000-0  19420-3 0  9996,2 52685  53.2138 258.2238 0000994  84.2804 275.8301 15.08840725 61630,6917.878,95.438,540.431,539.056,0.0
52685.0,STARLINK-4029,PAYLOAD,2023-06-26 14:51:56,15.08839044,9.87e-05,53.2155,255.2492,94.7102,265.4003,4.8111e-05,4.78e-06,0.0,0 STARLINK-4029,1 52685U 22053AF  23177.61940120  .00000478  00000-0  48111-4 0  9999,2 52685  53.2155 255.2492 0000987  94.7102 265.4003 15.08839044 61734,6917.883,95.438,540.431,539.066,0.0
52685.0,STARLINK-4029,PAYLOAD,2023-06-28 05:01:11,15.08836678,9.77e-05,53.2155,248.1127,92.9652,267.1452,0.0001164,1.565e-05,0.0,0 STARLINK-4029,1 52685U 22053AF  23179.20916337  .00001565  00000-0  11640-3 0  9993,2 52685  53.2155 248.1127 0000977  92.9652 267.1452 15.08836678 61972,6917.891,95.438,540.431,539.08,0.0
52685.0,STARLINK-4029,PAYLOAD,2023-06-29 11:13:31,15.08843872,7.59e-05,53.216,242.4635,95.2931,264.8148,2.8906e-05,1.72e-06,0.0,0 STARLINK-4029,1 52685U 22053AF  23180.46772129  .00000172  00000-0  28906-4 0  9999,2 52685  53.2160 242.4635 0000759  95.2931 264.8148 15.08843872 62165,6917.869,95.437,540.259,539.208,0.0
52685.0,STARLINK-4029,PAYLOAD,2023-06-30 12:39:41,15.08842312,8.87e-05,53.2161,237.7056,97.3985,262.7108,0.00011489,1.541e-05,0.0,0 STARLINK-4029,1 52685U 22053AF  23181.52755996  .00001541  00000-0  11489-3 0  9998,2 52685  53.2161 237.7056 0000887  97.3985 262.7108 15.08842312 62323,6917.873,95.437,540.352,539.125,0.0
52685.0,STARLINK-4029,PAYLOAD,2023-06-30 20:36:37,15.08834975,8.67e-05,53.2159,236.2185,101.858,258.251,1.333e-05,-7.6e-07,0.0,0 STARLINK-4029,1 52685U 22053AF  23181.85876672 -.00000076  00000-0  13330-4 0  9990,2 52685  53.2159 236.2185 0000867 101.8580 258.2510 15.08834975 62375,6917.896,95.438,540.361,539.161,0.0
52685.0,STARLINK-4029,PAYLOAD,2023-07-01 09:19:43,15.08821011,9.17e-05,53.2161,233.84,92.839,267.2708,0.00013523,1.864e-05,0.0,0 STARLINK-4029,1 52685U 22053AF  23182.38869379  .00001864  00000-0  13523-3 0  9993,2 52685  53.2161 233.8400 0000917  92.8390 267.2708 15.08821011 62450,6917.938,95.439,540.438,539.169,0.0
52685.0,STARLINK-4029,PAYLOAD,2023-07-01 12:30:29,15.08829905,9.63e-05,53.216,233.2453,96.7399,263.3703,5.1937e-05,5.39e-06,0.0,0 STARLINK-4029,1 52685U 22053AF  23182.52117147  .00000539  00000-0  51937-4 0  9998,2 52685  53.2160 233.2453 0000963  96.7399 263.3703 15.08829905 62478,6917.911,95.438,540.442,539.11,0.0
52685.0,STARLINK-4029,PAYLOAD,2023-07-02 10:45:52,15.08842507,8.98e-05,53.2157,229.0816,88.4341,271.6754,4.6118e-05,4.46e-06,0.0,0 STARLINK-4029,1 52685U 22053AF  23183.44852465  .00000446  00000-0  46118-4 0  9991,2 52685  53.2157 229.0816 0000898  88.4341 271.6754 15.08842507 62619,6917.873,95.437,540.359,539.117,0.0
52685.0,STARLINK-4029,PAYLOAD,2023-07-03 20:08:58,15.08838986,8e-05,53.2151,222.8359,91.8027,268.3057,6.6506e-05,7.71e-06,0.0,0 STARLINK-4029,1 52685U 22053AF  23184.83956607  .00000771  00000-0  66506-4 0  9992,2 52685  53.2151 222.8359 0000800  91.8027 268.3057 15.08838986 62826,6917.883,95.438,540.302,539.195,0.0
52685.0,STARLINK-4029,PAYLOAD,2023-07-04 08:52:05,15.0882071,0.0001065,53.2158,220.4563,97.3905,262.7208,-0.00015192,-2.703e-05,0.0,0 STARLINK-4029,1 52685U 22053AF  23185.36950919 -.00002703  00000-0 -15192-3 0  9994,2 52685  53.2158 220.4563 0001065  97.3905 262.7208 15.08820710 62905,6917.939,95.439,540.541,539.068,0.0
52685.0,STARLINK-4029,PAYLOAD,2023-07-04 13:38:14,15.08827332,0.000127,53.2165,219.5563,129.2317,230.8788,-9.4527e-05,-1.791e-05,0.0,0 STARLINK-4029,1 52685U 22053AF  23185.56822313 -.00001791  00000-0 -94527-4 0  9998,2 52685  53.2165 219.5563 0001270 129.2317 230.8788 15.08827332 62931,6917.919,95.438,540.663,538.906,0.0
52685.0,STARLINK-4029,PAYLOAD,2023-07-05 08:42:52,15.08833944,8.54e-05,53.2151,215.9968,73.5442,286.5644,-9.4209e-06,-4.38e-06,0.0,0 STARLINK-4029,1 52685U 22053AF  23186.36310368 -.00000438  00000-0 -94209-5 0  9994,2 52685  53.2151 215.9968 0000854  73.5442 286.5644 15.08833944 63051,6917.899,95.438,540.355,539.173,0.0
52685.0,STARLINK-4029,PAYLOAD,2023-07-06 08:33:40,15.08785613,6.94e-05,53.2154,211.5382,80.9056,279.2015,0.00095202,0.00014873,0.0,0 STARLINK-4029,1 52685U 22053AF  23187.35672335  .00014873  00000-0  95202-3 0  9997,2 52685  53.2154 211.5382 0000694  80.9056 279.2015 15.08785613 63208,6918.047,95.441,540.392,539.432,0.0
52685.0,STARLINK-4029,PAYLOAD,2023-07-06 11:44:25,15.08839741,9.51e-05,53.2154,210.9425,61.2578,298.851,0.00018243,2.617e-05,0.0,0 STARLINK-4029,1 52685U 22053AF  23187.48918297  .00002617  00000-0  18243-3 0  9994,2 52685  53.2154 210.9425 0000951  61.2578 298.8510 15.08839741 63227,6917.881,95.438,540.404,539.088,0.0
52685.0,STARLINK-4029,PAYLOAD,2023-07-07 17:56:44,15.08849275,0.0001001,53.2153,205.2924,60.296,299.8132,0.00016793,2.386e-05,0.0,0 STARLINK-4029,1 52685U 22053AF  23188.74773766  .00002386  00000-0  16793-3 0  9995,2 52685  53.2153 205.2924 0001001  60.2960 299.8132 15.08849275 63413,6917.852,95.437,540.41,539.025,0.0
